#cP2019  4 10  1  0  0.00000000     192 d     IGb08 FIT SIO 
## 2048 262800.00000000   900.00000000 58583 0.0416666666667
+   30   G01G02G03G05G06G07G08G09G10G11G12G13G14G15G16G17G18
+        G19G20G21G22G23G24G25G26G27G28G29G30G31  0  0  0  0
+          0  0  0  0  0  0  0  0  0  0  0  0  0  0  0  0  0
+          0  0  0  0  0  0  0  0  0  0  0  0  0  0  0  0  0
+          0  0  0  0  0  0  0  0  0  0  0  0  0  0  0  0  0
++         7  6  7  6  6  6  7  6  7  7  7  8  7  6  7  6  6
++         6  6  6  7  6  7  7  7  7  6  6  7  6  0  0  0  0
++         0  0  0  0  0  0  0  0  0  0  0  0  0  0  0  0  0
++         0  0  0  0  0  0  0  0  0  0  0  0  0  0  0  0  0
++         0  0  0  0  0  0  0  0  0  0  0  0  0  0  0  0  0
%c  G cc GPS ccc cccc cccc cccc cccc ccccc ccccc ccccc ccccc
%c cc cc ccc ccc cccc cccc cccc cccc ccccc ccccc ccccc ccccc
%f  1.2500000  1.025000000  0.00000000000  0.000000000000000
%f  1.2500000  1.025000000  0.00000000000  0.000000000000000
%i    0    0    0    0      0      0      0      0         0
%i    0    0    0    0      0      0      0      0         0
/*                                                                    
/*                                                                    
/*                                                                    
/* PCV:IGB08      OL/AL:FES2004  NONE     YN ORB:CoN CLK:CoN
*  2019  4 11  2  0  0.00000000
PG01  22040.569534  14308.933253  -5088.183870 999999.999999
PG02  -3216.619537 -17078.242556  20735.398906 999999.999999
PG03  12398.045005  17552.038381  15625.331679 999999.999999
PG05  -2142.582736 -26333.887285   1067.083992 999999.999999
PG06  10371.636077 -11399.000757  21681.064949 999999.999999
PG07  24835.384226   5882.549232  -7921.672442 999999.999999
PG08   6801.090536  13485.081266 -21797.683796 999999.999999
PG09  22738.654203  -5246.898914  12653.045023 999999.999999
PG10 -11804.276974  14532.255171 -18700.620305 999999.999999
PG11  19945.585888  10894.562245 -14081.752346 999999.999999
PG12 -10409.938358 -19126.130489  15118.456448 999999.999999
PG13   2735.997410 -17150.831627 -20195.916645 999999.999999
PG14 -16385.748134  18114.868390  10514.803975 999999.999999
PG15 -10163.189022 -12404.873469 -21427.939007 999999.999999
PG16    417.708660  26308.662517   -679.491525 999999.999999
PG17  21654.246826 -15184.761624   2244.303481 999999.999999
PG18  15479.854965  17016.889645 -13880.474542 999999.999999
PG19  17883.751358 -17152.083839   9386.440941 999999.999999
PG20 -15286.624642   4601.620493 -21326.131172 999999.999999
PG21 -23633.619527   -843.228602 -11146.916770 999999.999999
PG22  10460.345912  22797.468573   9069.500629 999999.999999
PG23  17285.231674   5292.259385  19909.481508 999999.999999
PG24 -20280.498572 -15170.138830  -8691.156425 999999.999999
PG25 -14841.839021  -6753.107663  20809.664478 999999.999999
PG26  -4738.510189  23927.554676  10270.802823 999999.999999
PG27  -4656.477086  18449.165412 -18498.405697 999999.999999
PG28  12563.652239 -13238.838012 -18725.336625 999999.999999
PG29 -20784.695027   -206.463251  16507.977061 999999.999999
PG30  20040.538310  -3590.387405 -17133.950574 999999.999999
PG31  -9745.452187  12020.317943  21619.864899 999999.999999
*  2019  4 11  2 15  0.00000000
PG01  21317.452059  14189.261343  -7827.125456 999999.999999
PG02  -1036.764615 -16363.885687  21528.981478 999999.999999
PG03  12411.134809  19231.180849  13506.233300 999999.999999
PG05  -1799.905857 -26081.376317   3892.824783 999999.999999
PG06  12585.872356 -10401.540830  21001.107899 999999.999999
PG07  25448.773611   6404.903516  -5235.907581 999999.999999
PG08   4810.481413  14958.358691 -21345.023915 999999.999999
PG09  21616.069729  -4113.381125  14842.019963 999999.999999
PG10 -12194.271070  12331.627079 -19999.445214 999999.999999
PG11  18293.244350  11236.711604 -16019.467513 999999.999999
PG12 -10349.566097 -20756.605368  12891.275645 999999.999999
PG13   4710.903639 -18157.535938 -18899.532883 999999.999999
PG14 -17375.396660  18457.902003   7916.958756 999999.999999
PG15  -8354.063532 -13981.112302 -21200.386492 999999.999999
PG16    189.914447  26205.013282   2245.705644 999999.999999
PG17  21800.315481 -15048.697408   -661.261509 999999.999999
PG18  13891.427722  16617.344507 -15950.987576 999999.999999
PG19  18793.132181 -17488.853161   6694.544740 999999.999999
PG20 -15858.585574   2241.870650 -21299.966633 999999.999999
PG21 -24704.340488  -1537.716463  -8634.969938 999999.999999
PG22  10309.376327  23706.210155   6479.437971 999999.999999
PG23  15545.914911   6743.626578  20860.863414 999999.999999
PG24 -19150.949933 -15022.577526 -11168.166921 999999.999999
PG25 -15036.126553  -9102.449365  19782.337802 999999.999999
PG26  -5173.394389  22652.840502  12681.562402 999999.999999
PG27  -6342.104090  19545.132647 -16755.434369 999999.999999
PG28  12723.650365 -10913.112400 -20022.231067 999999.999999
PG29 -19177.883879  -1387.842311  18295.694960 999999.999999
PG30  21629.108241  -2608.988019 -15299.107120 999999.999999
PG31 -11945.846108  10966.455769  21109.016270 999999.999999
*  2019  4 11  2 30  0.00000000
PG01  20307.630030  14005.911424 -10434.606733 999999.999999
PG02   1243.046957 -15746.477868  21972.289864 999999.999999
PG03  12468.260183  20657.674320  11155.107214 999999.999999
PG05  -1381.009482 -25535.094970   6650.575660 999999.999999
PG06  14759.374749  -9558.841654  19961.463236 999999.999999
PG07  25802.018706   6783.376476  -2461.991462 999999.999999
PG08   2954.648429  16489.467847 -20522.788078 999999.999999
PG09  20375.957110  -2771.253853  16775.035183 999999.999999
PG10 -12720.457414  10029.666466 -20950.680711 999999.999999
PG11  16463.076018  11667.360985 -17688.448029 999999.999999
PG12 -10351.751004 -22121.567733  10441.600266 999999.999999
PG13   6492.243710 -19178.790703 -17280.425214 999999.999999
PG14 -18103.431969  18675.060009   5182.837015 999999.999999
PG15  -6650.559965 -15612.136824 -20615.102342 999999.999999
PG16    -75.067764  25781.487590   5131.085581 999999.999999
PG17  21692.463056 -14718.754017  -3555.324209 999999.999999
PG18  12081.038977  16237.010276 -17757.223923 999999.999999
PG19  19422.455605 -17699.586830   3887.007035 999999.999999
PG20 -16534.973297    -64.434292 -20910.968302 999999.999999
PG21 -25520.422758  -2087.313675  -5968.407312 999999.999999
PG22  10127.924885  24334.391364   3779.000115 999999.999999
PG23  13815.281859   8339.909035  21465.762324 999999.999999
PG24 -17760.967413 -14852.683474 -13457.647768 999999.999999
PG25 -15332.039795 -11300.207840  18410.838072 999999.999999
PG26  -5723.308819  21146.037831  14871.879742 999999.999999
PG27  -7804.209323  20593.533548 -14722.624709 999999.999999
PG28  13021.384095  -8466.633381 -20956.627238 999999.999999
PG29 -17490.799975  -2767.716533  19767.914164 999999.999999
PG30  23058.774118  -1792.526556 -13202.773205 999999.999999
PG31 -14122.070970  10059.711693  20237.325356 999999.999999
*  2019  4 11  2 45  0.00000000
PG01  19018.288130  13798.600888 -12866.983448 999999.999999
PG02   3581.562761 -15243.815107  22058.062937 999999.999999
PG03  12534.199409  21809.888740   8612.473820 999999.999999
PG05   -854.017656 -24713.933579   9292.068642 999999.999999
PG06  16843.736706  -8873.197937  18579.947520 999999.999999
PG07  25875.391462   7049.120213    353.236620 999999.999999
PG08   1262.674906  18038.401434 -19344.686539 999999.999999
PG09  19061.367322  -1225.279430  18418.645299 999999.999999
PG10 -13386.358944   7674.882768 -21538.259079 999999.999999
PG11  14492.126344  12203.095821 -19062.243920 999999.999999
PG12 -10380.617614 -23198.568739   7812.237945 999999.999999
PG13   8057.843204 -20174.274506 -15365.924974 999999.999999
PG14 -18578.195412  18728.369495   2359.147043 999999.999999
PG15  -5078.475594 -17260.845101 -19680.671225 999999.999999
PG16   -414.914874  25050.394350   7925.367473 999999.999999
PG17  21357.605906 -14166.371508  -6387.420424 999999.999999
PG18  10076.192461  15908.698331 -19270.092097 999999.999999
PG19  19783.829503 -17746.662886   1012.559890 999999.999999
PG20 -17297.654632  -2275.346457 -20166.109076 999999.999999
PG21 -26057.516013  -2519.934420  -3195.876613 999999.999999
PG22   9880.793369  24679.232586   1014.028890 999999.999999
PG23  12131.626534  10057.443105  21713.300864 999999.999999
PG24 -16127.332764 -14695.718574 -15521.159968 999999.999999
PG25 -15703.962082 -13306.479572  16719.996969 999999.999999
PG26  -6409.234042  19443.674377  16803.882322 999999.999999
PG27  -9032.589172  21549.722508 -12434.468144 999999.999999
PG28  13464.450459  -5951.331869 -21510.410722 999999.999999
PG29 -15770.671588  -4335.638137  20899.194152 999999.999999
PG30  24290.828943  -1128.066107 -10881.029376 999999.999999
PG31 -16227.332763   9306.036479  19020.863583 999999.999999
